{"type": "FeatureCollection", "features": [ {"type": "Feature", "properties": {"norad_id": 66738, "name": "FLOCK 4H-35", "group": "last-30-days", "lat": 4.002809025594292, "lon": 72.18604692903057, "alt_km": 514.729896961313, "timestamp": "2025-12-27T03:58:42.931602+00:00", "meta": {"OBJECT_NAME": "FLOCK 4H-35", "OBJECT_ID": "2025-276CA", "EPOCH": "2025-12-26T15:18:25.760160", "MEAN_MOTION": 15.18302161, "ECCENTRICITY": 0.0002612, "INCLINATION": 97.4396, "RA_OF_ASC_NODE": 72.1907, "ARG_OF_PERICENTER": 140.4723, "MEAN_ANOMALY": 219.6702, "EPHEMERIS_TYPE": 0, "CLASSIFICATION_TYPE": "U", "NORAD_CAT_ID": 66738, "ELEMENT_SET_NO": 999, "REV_AT_EPOCH": 352, "BSTAR": 0.00082926, "MEAN_MOTION_DOT": 0.00016967, "MEAN_MOTION_DDOT": 0}, "tle": {"line1": "1 66738U 25276CA  25360.63779815  .00016967  00000+0  82926-3 0  9992", "line2": "2 66738  97.4396  72.1907 0002612 140.4723 219.6702 15.18302161  3523"}}, "geometry": {"type": "Point", "coordinates": [72.18604692903057, 4.002809025594292]}}, {"type": "Feature", "properties": {"norad_id": 66739, "name": "FLOCK 4H-36", "group": "last-30-days", "lat": -21.729664816394074, "lon": 75.7048000243698, "alt_km": 518.9796092551187, "timestamp": "2025-12-27T03:58:42.931611+00:00", "meta": {"OBJECT_NAME": "FLOCK 4H-36", "OBJECT_ID": "2025-276CB", "EPOCH": "2025-12-26T17:00:03.880800", "MEAN_MOTION": 15.18041307, "ECCENTRICITY": 0.0002701, "INCLINATION": 97.4441, "RA_OF_ASC_NODE": 72.2678, "ARG_OF_PERICENTER": 172.1138, "MEAN_ANOMALY": 188.0139, "EPHEMERIS_TYPE": 0, "CLASSIFICATION_TYPE": "U", "NORAD_CAT_ID": 66739, "ELEMENT_SET_NO": 999, "REV_AT_EPOCH": 424, "BSTAR": 0.00035061, "MEAN_MOTION_DOT": 7.072e-05, "MEAN_MOTION_DDOT": 0}, "tle": {"line1": "1 66739U 25276CB  25360.70837825  .00007072  00000+0  35061-3 0  9992", "line2": "2 66739  97.4441  72.2678 0002701 172.1138 188.0139 15.18041307  4247"}}, "geometry": {"type": "Point", "coordinates": [75.7048000243698, -21.729664816394074]}}, {"type": "Feature", "properties": {"norad_id": 66740, "name": "TRANSPORTER-15CC", "group": "last-30-days", "lat": -51.60774351253206, "lon": 82.18718597127668, "alt_km": 519.6136115785193, "timestamp": "2025-12-27T03:58:42.931622+00:00", "meta": {"OBJECT_NAME": "TRANSPORTER-15CC", "OBJECT_ID": "2025-276CC", "EPOCH": "2025-12-26T17:07:56.881920", "MEAN_MOTION": 15.17770077, "ECCENTRICITY": 0.0002343, "INCLINATION": 97.4404, "RA_OF_ASC_NODE": 72.2499, "ARG_OF_PERICENTER": 217.2116, "MEAN_ANOMALY": 142.8955, "EPHEMERIS_TYPE": 0, "CLASSIFICATION_TYPE": "U", "NORAD_CAT_ID": 66740, "ELEMENT_SET_NO": 999, "REV_AT_EPOCH": 424, "BSTAR": 0.00039428, "MEAN_MOTION_DOT": 7.9e-05, "MEAN_MOTION_DDOT": 0}, "tle": {"line1": "1 66740U 25276CC  25360.71385280  .00007900  00000+0  39428-3 0  9999", "line2": "2 66740  97.4404  72.2499 0002343 217.2116 142.8955 15.17770077  4244"}}, "geometry": {"type": "Point", "coordinates": [82.18718597127668, -51.60774351253206]}}, {"type": "Feature", "properties": {"norad_id": 66741, "name": "TRANSPORTER-15CD", "group": "last-30-days", "lat": -58.30668052461837, "lon": 84.90144659126314, "alt_km": 520.1518006487058, "timestamp": "2025-12-27T03:58:42.931631+00:00", "meta": {"OBJECT_NAME": "TRANSPORTER-15CD", "OBJECT_ID": "2025-276CD", "EPOCH": "2025-12-26T18:44:39.517152", "MEAN_MOTION": 15.17656441, "ECCENTRICITY": 0.0001268, "INCLINATION": 97.4402, "RA_OF_ASC_NODE": 72.3045, "ARG_OF_PERICENTER": 206.3208, "MEAN_ANOMALY": 153.7962, "EPHEMERIS_TYPE": 0, "CLASSIFICATION_TYPE": "U", "NORAD_CAT_ID": 66741, "ELEMENT_SET_NO": 999, "REV_AT_EPOCH": 425, "BSTAR": 0.0001982, "MEAN_MOTION_DOT": 3.923e-05, "MEAN_MOTION_DDOT": 0}, "tle": {"line1": "1 66741U 25276CD  25360.78101293  .00003923  00000+0  19820-3 0  9992", "line2": "2 66741  97.4402  72.3045 0001268 206.3208 153.7962 15.17656441  4255"}}, "geometry": {"type": "Point", "coordinates": [84.90144659126314, -58.30668052461837]}}, {"type": "Feature", "properties": {"norad_id": 66742, "name": "TRANSPORTER-15CE", "group": "last-30-days", "lat": -48.92802466489787, "lon": 81.30757002689944, "alt_km": 520.571528216843, "timestamp": "2025-12-27T03:58:42.931641+00:00", "meta": {"OBJECT_NAME": "TRANSPORTER-15CE", "OBJECT_ID": "2025-276CE", "EPOCH": "2025-12-26T17:07:12.906048", "MEAN_MOTION": 15.17743167, "ECCENTRICITY": 0.0002009, "INCLINATION": 97.4396, "RA_OF_ASC_NODE": 72.2396, "ARG_OF_PERICENTER": 175.2913, "MEAN_ANOMALY": 184.834, "EPHEMERIS_TYPE": 0, "CLASSIFICATION_TYPE": "U", "NORAD_CAT_ID": 66742, "ELEMENT_SET_NO": 999, "REV_AT_EPOCH": 424, "BSTAR": 0.00031415, "MEAN_MOTION_DOT": 6.275e-05, "MEAN_MOTION_DDOT": 0}, "tle": {"line1": "1 66742U 25276CE  25360.71334382  .00006275  00000+0  31415-3 0  9990", "line2": "2 66742  97.4396  72.2396 0002009 175.2913 184.8340 15.17743167  4243"}}, "geometry": {"type": "Point", "coordinates": [81.30757002689944, -48.92802466489787]}}, {"type": "Feature", "properties": {"norad_id": 66743, "name": "TRANSPORTER-15CF", "group": "last-30-days", "lat": -10.496041620469478, "lon": -108.75658171297394, "alt_km": 575.5481077742797, "timestamp": "2025-12-27T03:58:42.931650+00:00", "meta": {"OBJECT_NAME": "TRANSPORTER-15CF", "OBJECT_ID": "2025-276CF", "EPOCH": "2025-12-25T04:50:49.043328", "MEAN_MOTION": 15.11484429, "ECCENTRICITY": 0.0034918, "INCLINATION": 97.4397, "RA_OF_ASC_NODE": 70.743, "ARG_OF_PERICENTER": 109.5161, "MEAN_ANOMALY": 250.9846, "EPHEMERIS_TYPE": 0, "CLASSIFICATION_TYPE": "U", "NORAD_CAT_ID": 66743, "ELEMENT_SET_NO": 999, "REV_AT_EPOCH": 401, "BSTAR": -0.23724, "MEAN_MOTION_DOT": -0.03580195, "MEAN_MOTION_DDOT": 0}, "tle": {"line1": "1 66743U 25276CF  25359.20195652 -.03580195  00000+0 -23724+0 0  9991", "line2": "2 66743  97.4397  70.7430 0034918 109.5161 250.9846 15.11484429  4014"}}, "geometry": {"type": "Point", "coordinates": [-108.75658171297394, -10.496041620469478]}}, {"type": "Feature", "properties": {"norad_id": 66744, "name": "TRANSPORTER-15CG", "group": "last-30-days", "lat": -40.3311474543132, "lon": 78.97227146568305, "alt_km": 515.6521438061009, "timestamp": "2025-12-27T03:58:42.931659+00:00", "meta": {"OBJECT_NAME": "TRANSPORTER-15CG", "OBJECT_ID": "2025-276CG", "EPOCH": "2025-12-25T03:09:31.796064", "MEAN_MOTION": 15.19341003, "ECCENTRICITY": 0.00243198, "INCLINATION": 97.3868, "RA_OF_ASC_NODE": 70.659, "ARG_OF_PERICENTER": 231.5349, "MEAN_ANOMALY": 128.3704, "EPHEMERIS_TYPE": 0, "CLASSIFICATION_TYPE": "U", "NORAD_CAT_ID": 66744, "ELEMENT_SET_NO": 999, "REV_AT_EPOCH": 400, "BSTAR": 0.00064815362, "MEAN_MOTION_DOT": 0.00013749, "MEAN_MOTION_DDOT": 0}, "tle": {"line1": "1 66744U 25276CG  25359.13161801  .00013749  00000+0  64815-3 0  9994", "line2": "2 66744  97.3868  70.6590 0024319 231.5349 128.3704 15.19341003  4009"}}, "geometry": {"type": "Point", "coordinates": [78.97227146568305, -40.3311474543132]}}, {"type": "Feature", "properties": {"norad_id": 66745, "name": "TRANSPORTER-15CH", "group": "last-30-days", "lat": -73.78265169238952, "lon": 99.37619641017173, "alt_km": 521.1171689761004, "timestamp": "2025-12-27T03:58:42.931668+00:00", "meta": {"OBJECT_NAME": "TRANSPORTER-15CH", "OBJECT_ID": "2025-276CH", "EPOCH": "2025-12-26T18:48:55.234368", "MEAN_MOTION": 15.17417975, "ECCENTRICITY": 0.000138, "INCLINATION": 97.4404, "RA_OF_ASC_NODE": 72.3015, "ARG_OF_PERICENTER": 187.0481, "MEAN_ANOMALY": 173.0734, "EPHEMERIS_TYPE": 0, "CLASSIFICATION_TYPE": "U", "NORAD_CAT_ID": 66745, "ELEMENT_SET_NO": 999, "REV_AT_EPOCH": 425, "BSTAR": 0.00014283, "MEAN_MOTION_DOT": 2.789e-05, "MEAN_MOTION_DDOT": 0}, "tle": {"line1": "1 66745U 25276CH  25360.78397262  .00002789  00000+0  14283-3 0  9996", "line2": "2 66745  97.4404  72.3015 0001380 187.0481 173.0734 15.17417975  4250"}}, "geometry": {"type": "Point", "coordinates": [99.37619641017173, -73.78265169238952]}}, {"type": "Feature", "properties": {"norad_id": 66746, "name": "TRANSPORTER-15CJ", "group": "last-30-days", "lat": -49.37900138324076, "lon": 81.40092698287611, "alt_km": 518.9926012142159, "timestamp": "2025-12-27T03:58:42.931677+00:00", "meta": {"OBJECT_NAME": "TRANSPORTER-15CJ", "OBJECT_ID": "2025-276CJ", "EPOCH": "2025-12-26T17:08:06.232128", "MEAN_MOTION": 15.19483124, "ECCENTRICITY": 0.0013501, "INCLINATION": 97.383, "RA_OF_ASC_NODE": 72.2643, "ARG_OF_PERICENTER": 191.2196, "MEAN_ANOMALY": 168.874, "EPHEMERIS_TYPE": 0, "CLASSIFICATION_TYPE": "U", "NORAD_CAT_ID": 66746, "ELEMENT_SET_NO": 999, "REV_AT_EPOCH": 424, "BSTAR": 0.00084252, "MEAN_MOTION_DOT": 0.00017881, "MEAN_MOTION_DDOT": 0}, "tle": {"line1": "1 66746U 25276CJ  25360.71396102  .00017881  00000+0  84252-3 0  9994", "line2": "2 66746  97.3830  72.2643 0013501 191.2196 168.8740 15.19483124  4246"}}, "geometry": {"type": "Point", "coordinates": [81.40092698287611, -49.37900138324076]}}, {"type": "Feature", "properties": {"norad_id": 66747, "name": "W-SERIES 5", "group": "last-30-days", "lat": -62.24532528730262, "lon": 87.06315658965823, "alt_km": 520.7654461312704, "timestamp": "2025-12-27T03:58:42.931686+00:00", "meta": {"OBJECT_NAME": "W-SERIES 5", "OBJECT_ID": "2025-276CK", "EPOCH": "2025-12-26T17:10:45.572736", "MEAN_MOTION": 15.17571727, "ECCENTRICITY": 0.0001626, "INCLINATION": 97.4405, "RA_OF_ASC_NODE": 72.2414, "ARG_OF_PERICENTER": 188.2769, "MEAN_ANOMALY": 171.8438, "EPHEMERIS_TYPE": 0, "CLASSIFICATION_TYPE": "U", "NORAD_CAT_ID": 66747, "ELEMENT_SET_NO": 999, "REV_AT_EPOCH": 424, "BSTAR": 0.00024888, "MEAN_MOTION_DOT": 4.932e-05, "MEAN_MOTION_DDOT": 0}, "tle": {"line1": "1 66747U 25276CK  25360.71580524  .00004932  00000+0  24888-3 0  9990", "line2": "2 66747  97.4405  72.2414 0001626 188.2769 171.8438 15.17571727  4242"}}, "geometry": {"type": "Point", "coordinates": [87.06315658965823, -62.24532528730262]}}]}